{"type": "FeatureCollection", "features": [ {"type": "Feature", "properties": {"norad_id": 31293, "name": "FENGYUN 1C DEB", "group": "fengyun-1c-debris", "lat": 46.35840699422531, "lon": -18.079978913904856, "alt_km": 863.2416124161946, "timestamp": "2025-12-08T23:34:04.251106+00:00", "meta": {"OBJECT_NAME": "FENGYUN 1C DEB", "OBJECT_ID": "1999-025BPB", "EPOCH": "2025-12-08T06:33:43.943328", "MEAN_MOTION": 14.30809247, "ECCENTRICITY": 0.01253564, "INCLINATION": 98.4229, "RA_OF_ASC_NODE": 350.1715, "ARG_OF_PERICENTER": 258.2232, "MEAN_ANOMALY": 100.4866, "EPHEMERIS_TYPE": 0, "CLASSIFICATION_TYPE": "U", "NORAD_CAT_ID": 31293, "ELEMENT_SET_NO": 999, "REV_AT_EPOCH": 65180, "BSTAR": 0.00015334876, "MEAN_MOTION_DOT": 3.93e-06, "MEAN_MOTION_DDOT": 0}, "tle": {"line1": "1 31293U 99025BPB 25342.27342527  .00000393  00000+0  15335-3 0  9995", "line2": "2 31293  98.4229 350.1715 0125356 258.2232 100.4866 14.30809247651805"}}, "geometry": {"type": "Point", "coordinates": [-18.079978913904856, 46.35840699422531]}}, {"type": "Feature", "properties": {"norad_id": 31294, "name": "FENGYUN 1C DEB", "group": "fengyun-1c-debris", "lat": -40.944983111601914, "lon": -13.75488436033673, "alt_km": 787.3122860639905, "timestamp": "2025-12-08T23:34:04.251117+00:00", "meta": {"OBJECT_NAME": "FENGYUN 1C DEB", "OBJECT_ID": "1999-025BPC", "EPOCH": "2025-12-08T10:11:10.804704", "MEAN_MOTION": 14.1529869, "ECCENTRICITY": 0.00998923, "INCLINATION": 98.5432, "RA_OF_ASC_NODE": 338.2173, "ARG_OF_PERICENTER": 353.5109, "MEAN_ANOMALY": 6.4765, "EPHEMERIS_TYPE": 0, "CLASSIFICATION_TYPE": "U", "NORAD_CAT_ID": 31294, "ELEMENT_SET_NO": 999, "REV_AT_EPOCH": 96792, "BSTAR": 0.00089943143, "MEAN_MOTION_DOT": 1.795e-05, "MEAN_MOTION_DDOT": 0}, "tle": {"line1": "1 31294U 99025BPC 25342.42443061  .00001795  00000+0  89943-3 0  9991", "line2": "2 31294  98.5432 338.2173 0099892 353.5109   6.4765 14.15298690967928"}}, "geometry": {"type": "Point", "coordinates": [-13.75488436033673, -40.944983111601914]}}, {"type": "Feature", "properties": {"norad_id": 31295, "name": "FENGYUN 1C DEB", "group": "fengyun-1c-debris", "lat": 24.953431903529786, "lon": -7.823844928909465, "alt_km": 920.1780168765235, "timestamp": "2025-12-08T23:34:04.251127+00:00", "meta": {"OBJECT_NAME": "FENGYUN 1C DEB", "OBJECT_ID": "1999-025BPD", "EPOCH": "2025-12-08T03:54:40.184640", "MEAN_MOTION": 13.96829151, "ECCENTRICITY": 0.00766476, "INCLINATION": 98.3171, "RA_OF_ASC_NODE": 167.5322, "ARG_OF_PERICENTER": 264.2261, "MEAN_ANOMALY": 95.0162, "EPHEMERIS_TYPE": 0, "CLASSIFICATION_TYPE": "U", "NORAD_CAT_ID": 31295, "ELEMENT_SET_NO": 999, "REV_AT_EPOCH": 95439, "BSTAR": 0.00035779868, "MEAN_MOTION_DOT": 4.71e-06, "MEAN_MOTION_DDOT": 0}, "tle": {"line1": "1 31295U 99025BPD 25342.16296510  .00000471  00000+0  35780-3 0  9998", "line2": "2 31295  98.3171 167.5322 0076647 264.2261  95.0162 13.96829151954398"}}, "geometry": {"type": "Point", "coordinates": [-7.823844928909465, 24.953431903529786]}}, {"type": "Feature", "properties": {"norad_id": 31296, "name": "FENGYUN 1C DEB", "group": "fengyun-1c-debris", "lat": 32.18823798160616, "lon": -108.31177799632228, "alt_km": 668.9675285967751, "timestamp": "2025-12-08T23:34:04.251137+00:00", "meta": {"OBJECT_NAME": "FENGYUN 1C DEB", "OBJECT_ID": "1999-025BPE", "EPOCH": "2025-12-08T00:33:56.979360", "MEAN_MOTION": 14.71054353, "ECCENTRICITY": 0.00199278, "INCLINATION": 99.0664, "RA_OF_ASC_NODE": 256.391, "ARG_OF_PERICENTER": 233.018, "MEAN_ANOMALY": 126.92, "EPHEMERIS_TYPE": 0, "CLASSIFICATION_TYPE": "U", "NORAD_CAT_ID": 31296, "ELEMENT_SET_NO": 999, "REV_AT_EPOCH": 97280, "BSTAR": 0.0058047583, "MEAN_MOTION_DOT": 0.00035889, "MEAN_MOTION_DDOT": 0}, "tle": {"line1": "1 31296U 99025BPE 25342.02357615  .00035889  00000+0  58048-2 0  9990", "line2": "2 31296  99.0664 256.3910 0019927 233.0180 126.9200 14.71054353972807"}}, "geometry": {"type": "Point", "coordinates": [-108.31177799632228, 32.18823798160616]}}, {"type": "Feature", "properties": {"norad_id": 31297, "name": "FENGYUN 1C DEB", "group": "fengyun-1c-debris", "lat": -19.734399193577836, "lon": 122.83584356999027, "alt_km": 796.53190022137, "timestamp": "2025-12-08T23:34:04.251147+00:00", "meta": {"OBJECT_NAME": "FENGYUN 1C DEB", "OBJECT_ID": "1999-025BPF", "EPOCH": "2025-12-08T15:31:09.835104", "MEAN_MOTION": 14.57049337, "ECCENTRICITY": 0.01396278, "INCLINATION": 98.9344, "RA_OF_ASC_NODE": 119.2412, "ARG_OF_PERICENTER": 135.2555, "MEAN_ANOMALY": 247.5474, "EPHEMERIS_TYPE": 0, "CLASSIFICATION_TYPE": "U", "NORAD_CAT_ID": 31297, "ELEMENT_SET_NO": 999, "REV_AT_EPOCH": 99256, "BSTAR": 0.00089434336, "MEAN_MOTION_DOT": 4.542e-05, "MEAN_MOTION_DDOT": 0}, "tle": {"line1": "1 31297U 99025BPF 25342.64664161  .00004542  00000+0  89434-3 0  9992", "line2": "2 31297  98.9344 119.2412 0139627 135.2555 247.5474 14.57049337992562"}}, "geometry": {"type": "Point", "coordinates": [122.83584356999027, -19.734399193577836]}}, {"type": "Feature", "properties": {"norad_id": 31300, "name": "FENGYUN 1C DEB", "group": "fengyun-1c-debris", "lat": 49.05484619378298, "lon": -106.74828830480546, "alt_km": 814.7470447531769, "timestamp": "2025-12-08T23:34:04.251158+00:00", "meta": {"OBJECT_NAME": "FENGYUN 1C DEB", "OBJECT_ID": "1999-025BPJ", "EPOCH": "2025-12-08T11:23:39.274368", "MEAN_MOTION": 14.15096089, "ECCENTRICITY": 0.00607302, "INCLINATION": 99.5425, "RA_OF_ASC_NODE": 61.5303, "ARG_OF_PERICENTER": 72.2513, "MEAN_ANOMALY": 354.4776, "EPHEMERIS_TYPE": 0, "CLASSIFICATION_TYPE": "U", "NORAD_CAT_ID": 31300, "ELEMENT_SET_NO": 999, "REV_AT_EPOCH": 96114, "BSTAR": 0.0019520222, "MEAN_MOTION_DOT": 3.805e-05, "MEAN_MOTION_DDOT": 0}, "tle": {"line1": "1 31300U 99025BPJ 25342.47476012  .00003805  00000+0  19520-2 0  9993", "line2": "2 31300  99.5425  61.5303 0060730  72.2513 354.4776 14.15096089961147"}}, "geometry": {"type": "Point", "coordinates": [-106.74828830480546, 49.05484619378298]}}, {"type": "Feature", "properties": {"norad_id": 31302, "name": "FENGYUN 1C DEB", "group": "fengyun-1c-debris", "lat": 18.316727075127613, "lon": -152.11647458797896, "alt_km": 802.0334869240005, "timestamp": "2025-12-08T23:34:04.251168+00:00", "meta": {"OBJECT_NAME": "FENGYUN 1C DEB", "OBJECT_ID": "1999-025BPL", "EPOCH": "2025-12-05T14:46:32.923776", "MEAN_MOTION": 14.27462928, "ECCENTRICITY": 0.00274625, "INCLINATION": 99.4134, "RA_OF_ASC_NODE": 21.1132, "ARG_OF_PERICENTER": 75.788, "MEAN_ANOMALY": 75.4083, "EPHEMERIS_TYPE": 0, "CLASSIFICATION_TYPE": "U", "NORAD_CAT_ID": 31302, "ELEMENT_SET_NO": 999, "REV_AT_EPOCH": 96256, "BSTAR": 0.0026425456, "MEAN_MOTION_DOT": 6.469e-05, "MEAN_MOTION_DDOT": 0}, "tle": {"line1": "1 31302U 99025BPL 25339.61565884  .00006469  00000+0  26425-2 0  9994", "line2": "2 31302  99.4134  21.1132 0027462  75.7880  75.4083 14.27462928962567"}}, "geometry": {"type": "Point", "coordinates": [-152.11647458797896, 18.316727075127613]}}, {"type": "Feature", "properties": {"norad_id": 31303, "name": "FENGYUN 1C DEB", "group": "fengyun-1c-debris", "lat": 65.35678562800611, "lon": -161.18958333226877, "alt_km": 844.0682332021379, "timestamp": "2025-12-08T23:34:04.251179+00:00", "meta": {"OBJECT_NAME": "FENGYUN 1C DEB", "OBJECT_ID": "1999-025BPM", "EPOCH": "2025-12-08T07:43:00.586848", "MEAN_MOTION": 14.11022393, "ECCENTRICITY": 0.00114034, "INCLINATION": 98.7049, "RA_OF_ASC_NODE": 358.6608, "ARG_OF_PERICENTER": 164.1703, "MEAN_ANOMALY": 195.9827, "EPHEMERIS_TYPE": 0, "CLASSIFICATION_TYPE": "U", "NORAD_CAT_ID": 31303, "ELEMENT_SET_NO": 999, "REV_AT_EPOCH": 96256, "BSTAR": 0.00020904082, "MEAN_MOTION_DOT": 3.33e-06, "MEAN_MOTION_DDOT": 0}, "tle": {"line1": "1 31303U 99025BPM 25342.32153457  .00000333  00000+0  20904-3 0  9997", "line2": "2 31303  98.7049 358.6608 0011403 164.1703 195.9827 14.11022393962561"}}, "geometry": {"type": "Point", "coordinates": [-161.18958333226877, 65.35678562800611]}}, {"type": "Feature", "properties": {"norad_id": 31311, "name": "FENGYUN 1C DEB", "group": "fengyun-1c-debris", "lat": -77.00195960493075, "lon": 106.73453512911563, "alt_km": 813.6617375827182, "timestamp": "2025-12-08T23:34:04.251189+00:00", "meta": {"OBJECT_NAME": "FENGYUN 1C DEB", "OBJECT_ID": "1999-025BPP", "EPOCH": "2025-12-08T12:15:28.760256", "MEAN_MOTION": 14.29688332, "ECCENTRICITY": 0.00189809, "INCLINATION": 98.8527, "RA_OF_ASC_NODE": 63.7886, "ARG_OF_PERICENTER": 98.995, "MEAN_ANOMALY": 276.5164, "EPHEMERIS_TYPE": 0, "CLASSIFICATION_TYPE": "U", "NORAD_CAT_ID": 31311, "ELEMENT_SET_NO": 999, "REV_AT_EPOCH": 96161, "BSTAR": 0.0025499302, "MEAN_MOTION_DOT": 6.51e-05, "MEAN_MOTION_DDOT": 0}, "tle": {"line1": "1 31311U 99025BPP 25342.51074954  .00006510  00000+0  25499-2 0  9997", "line2": "2 31311  98.8527  63.7886 0018980  98.9950 276.5164 14.29688332961614"}}, "geometry": {"type": "Point", "coordinates": [106.73453512911563, -77.00195960493075]}}, {"type": "Feature", "properties": {"norad_id": 31312, "name": "FENGYUN 1C DEB", "group": "fengyun-1c-debris", "lat": 66.37549093496327, "lon": 169.64817581809635, "alt_km": 914.0383370231793, "timestamp": "2025-12-08T23:34:04.251200+00:00", "meta": {"OBJECT_NAME": "FENGYUN 1C DEB", "OBJECT_ID": "1999-025BPQ", "EPOCH": "2025-12-01T11:40:09.596352", "MEAN_MOTION": 14.00893121, "ECCENTRICITY": 0.00581856, "INCLINATION": 98.8574, "RA_OF_ASC_NODE": 321.4953, "ARG_OF_PERICENTER": 267.9693, "MEAN_ANOMALY": 222.3029, "EPHEMERIS_TYPE": 0, "CLASSIFICATION_TYPE": "U", "NORAD_CAT_ID": 31312, "ELEMENT_SET_NO": 999, "REV_AT_EPOCH": 94988, "BSTAR": 0.00061208287, "MEAN_MOTION_DOT": 8.85e-06, "MEAN_MOTION_DDOT": 0}, "tle": {"line1": "1 31312U 99025BPQ 25335.48622218  .00000885  00000+0  61208-3 0  9996", "line2": "2 31312  98.8574 321.4953 0058185 267.9693 222.3029 14.00893121949886"}}, "geometry": {"type": "Point", "coordinates": [169.64817581809635, 66.37549093496327]}}]}